start=new Date('2023-04-25T00:00:00.000Z').valueOf();
sats=[{"SITE":"AFETR","RA_OF_ASC_NODE":"72.1716","CENTER_NAME":"EARTH","TIME_SYSTEM":"UTC","ARG_OF_PERICENTER":"120.5041","PERIAPSIS":"546.034","MEAN_ELEMENT_THEORY":"SGP4","PERIOD":"95.587","RCS_SIZE":"LARGE","INCLINATION":"53.0555","OBJECT_NAME":"STARLINK-2101","MEAN_MOTION":"15.06478346","MEAN_MOTION_DOT":"0.00069929","EPOCH":"2023-04-24T06:45:10.577952","MEAN_MOTION_DDOT":"0.0000000000000","APOAPSIS":"547.912","REF_FRAME":"TEME","REV_AT_EPOCH":"12507","OBJECT_ID":"2021-005AJ","TLE_LINE2":"2 47381  53.0555  72.1716 0001356 120.5041 239.6082 15.06478346125079","DECAY_DATE":null,"FILE":"3893330","NORAD_CAT_ID":"47381","OBJECT_TYPE":"PAYLOAD","BSTAR":"0.00465740000000","EPHEMERIS_TYPE":"0","GP_ID":"230695004","ELEMENT_SET_NO":"999","SEMIMAJOR_AXIS":"6925.108","LAUNCH_DATE":"2021-01-20","CLASSIFICATION_TYPE":"U","MEAN_ANOMALY":"239.6082","ECCENTRICITY":"0.00013560","TLE_LINE1":"1 47381U 21005AJ  23114.28137243  .00069929  00000-0  46574-2 0  9995","COUNTRY_CODE":"US"},{"MEAN_MOTION_DDOT":"0.0000000000000","REF_FRAME":"TEME","APOAPSIS":"547.919","TLE_LINE2":"2 47382  53.0548  67.1865 0001302  96.7210 263.3927 15.06463942125139","OBJECT_ID":"2021-005AK","REV_AT_EPOCH":"12513","DECAY_DATE":null,"FILE":"3893330","BSTAR":"0.00623940000000","OBJECT_TYPE":"PAYLOAD","EPHEMERIS_TYPE":"0","NORAD_CAT_ID":"47382","GP_ID":"230695254","ELEMENT_SET_NO":"999","SEMIMAJOR_AXIS":"6925.153","LAUNCH_DATE":"2021-01-20","CLASSIFICATION_TYPE":"U","MEAN_ANOMALY":"263.3927","TLE_LINE1":"1 47382U 21005AK  23114.25787412  .00094064  00000-0  62394-2 0  9998","ECCENTRICITY":"0.00013020","COUNTRY_CODE":"US","SITE":"AFETR","RA_OF_ASC_NODE":"67.1865","CENTER_NAME":"EARTH","TIME_SYSTEM":"UTC","MEAN_ELEMENT_THEORY":"SGP4","PERIAPSIS":"546.116","ARG_OF_PERICENTER":"96.7210","PERIOD":"95.588","RCS_SIZE":"LARGE","MEAN_MOTION":"15.06463942","OBJECT_NAME":"STARLINK-2102","INCLINATION":"53.0548","MEAN_MOTION_DOT":"0.00094064","EPOCH":"2023-04-24T06:11:20.323968"},{"EPOCH":"2023-04-24T05:02:17.532960","MEAN_MOTION_DOT":"0.00066041","INCLINATION":"53.0562","OBJECT_NAME":"STARLINK-2103","MEAN_MOTION":"15.06485244","RCS_SIZE":"LARGE","PERIOD":"95.587","ARG_OF_PERICENTER":"100.8978","PERIAPSIS":"546.148","MEAN_ELEMENT_THEORY":"SGP4","TIME_SYSTEM":"UTC","CENTER_NAME":"EARTH","RA_OF_ASC_NODE":"57.4055","SITE":"AFETR","COUNTRY_CODE":"US","ECCENTRICITY":"0.00011620","TLE_LINE1":"1 47383U 21005AL  23114.20992515  .00066041  00000-0  44011-2 0  9996","MEAN_ANOMALY":"259.2141","LAUNCH_DATE":"2021-01-20","CLASSIFICATION_TYPE":"U","SEMIMAJOR_AXIS":"6925.087","ELEMENT_SET_NO":"999","GP_ID":"230696002","OBJECT_TYPE":"PAYLOAD","BSTAR":"0.00440110000000","NORAD_CAT_ID":"47383","EPHEMERIS_TYPE":"0","FILE":"3893330","DECAY_DATE":null,"OBJECT_ID":"2021-005AL","REV_AT_EPOCH":"12527","TLE_LINE2":"2 47383  53.0562  57.4055 0001162 100.8978 259.2141 15.06485244125277","REF_FRAME":"TEME","APOAPSIS":"547.757","MEAN_MOTION_DDOT":"0.0000000000000"},{"GP_ID":"230696754","OBJECT_TYPE":"PAYLOAD","NORAD_CAT_ID":"47384","BSTAR":"0.00675610000000","EPHEMERIS_TYPE":"0","DECAY_DATE":null,"FILE":"3893330","REV_AT_EPOCH":"12513","OBJECT_ID":"2021-005AM","TLE_LINE2":"2 47384  53.0562  67.4988 0000610  34.3740 325.7288 15.06480576125138","APOAPSIS":"547.389","REF_FRAME":"TEME","MEAN_MOTION_DDOT":"0.0000000000000","COUNTRY_CODE":"US","ECCENTRICITY":"0.00006100","TLE_LINE1":"1 47384U 21005AM  23114.24315764  .00102039  00000-0  67561-2 0  9999","MEAN_ANOMALY":"325.7288","LAUNCH_DATE":"2021-01-20","CLASSIFICATION_TYPE":"U","SEMIMAJOR_AXIS":"6925.102","ELEMENT_SET_NO":"999","ARG_OF_PERICENTER":"34.3740","PERIAPSIS":"546.544","MEAN_ELEMENT_THEORY":"SGP4","TIME_SYSTEM":"UTC","CENTER_NAME":"EARTH","RA_OF_ASC_NODE":"67.4988","SITE":"AFETR","EPOCH":"2023-04-24T05:50:08.820096","MEAN_MOTION_DOT":"0.00102039","OBJECT_NAME":"STARLINK-2104","INCLINATION":"53.0562","MEAN_MOTION":"15.06480576","RCS_SIZE":"LARGE","PERIOD":"95.587"},{"INCLINATION":"53.0550","OBJECT_NAME":"STARLINK-2105","MEAN_MOTION":"15.06460591","MEAN_MOTION_DOT":"0.00053629","EPOCH":"2023-04-24T05:44:47.158944","PERIOD":"95.588","RCS_SIZE":"LARGE","PERIAPSIS":"545.887","MEAN_ELEMENT_THEORY":"SGP4","ARG_OF_PERICENTER":"94.2240","SITE":"AFETR","RA_OF_ASC_NODE":"67.2735","CENTER_NAME":"EARTH","TIME_SYSTEM":"UTC","MEAN_ANOMALY":"265.8937","ECCENTRICITY":"0.00016470","TLE_LINE1":"1 47385U 21005AN  23114.23943471  .00053629  00000-0  35861-2 0  9999","COUNTRY_CODE":"US","ELEMENT_SET_NO":"999","SEMIMAJOR_AXIS":"6925.163","LAUNCH_DATE":"2021-01-20","CLASSIFICATION_TYPE":"U","FILE":"3893429","DECAY_DATE":null,"OBJECT_TYPE":"PAYLOAD","BSTAR":"0.00358610000000","EPHEMERIS_TYPE":"0","NORAD_CAT_ID":"47385","GP_ID":"230704688","MEAN_MOTION_DDOT":"0.0000000000000","APOAPSIS":"548.168","REF_FRAME":"TEME","REV_AT_EPOCH":"12574","OBJECT_ID":"2021-005AN","TLE_LINE2":"2 47385  53.0550  67.2735 0001647  94.2240 265.8937 15.06460591125742"},{"MEAN_MOTION_DOT":"0.00022086","EPOCH":"2023-04-24T17:36:00.432576","MEAN_MOTION":"15.06455525","OBJECT_NAME":"STARLINK-2106","INCLINATION":"53.0540","RCS_SIZE":"LARGE","PERIOD":"95.589","PERIAPSIS":"545.892","ARG_OF_PERICENTER":"73.5102","MEAN_ELEMENT_THEORY":"SGP4","CENTER_NAME":"EARTH","TIME_SYSTEM":"UTC","SITE":"AFETR","RA_OF_ASC_NODE":"65.0518","TLE_LINE1":"1 47386U 21005AP  23114.73333834  .00022086  00000-0  14947-2 0  9996","ECCENTRICITY":"0.00016630","COUNTRY_CODE":"US","MEAN_ANOMALY":"286.6070","LAUNCH_DATE":"2021-01-20","CLASSIFICATION_TYPE":"U","ELEMENT_SET_NO":"999","SEMIMAJOR_AXIS":"6925.178","BSTAR":"0.00149470000000","OBJECT_TYPE":"PAYLOAD","NORAD_CAT_ID":"47386","EPHEMERIS_TYPE":"0","GP_ID":"230704700","FILE":"3893425","DECAY_DATE":null,"APOAPSIS":"548.195","REF_FRAME":"TEME","TLE_LINE2":"2 47386  53.0540  65.0518 0001663  73.5102 286.6070 15.06455525125832","OBJECT_ID":"2021-005AP","REV_AT_EPOCH":"12583","MEAN_MOTION_DDOT":"0.0000000000000"},{"MEAN_ANOMALY":"266.3518","ECCENTRICITY":"0.00014910","TLE_LINE1":"1 47387U 21005AQ  23114.65317288  .00024767  00000-0  16735-2 0  9998","COUNTRY_CODE":"US","ELEMENT_SET_NO":"999","SEMIMAJOR_AXIS":"6925.194","LAUNCH_DATE":"2021-01-20","CLASSIFICATION_TYPE":"U","DECAY_DATE":null,"FILE":"3893434","NORAD_CAT_ID":"47387","OBJECT_TYPE":"PAYLOAD","BSTAR":"0.00167350000000","EPHEMERIS_TYPE":"0","GP_ID":"230705269","MEAN_MOTION_DDOT":"0.0000000000000","APOAPSIS":"548.091","REF_FRAME":"TEME","OBJECT_ID":"2021-005AQ","REV_AT_EPOCH":"12477","TLE_LINE2":"2 47387  53.0532  95.4122 0001491  93.7641 266.3518 15.06450515124771","INCLINATION":"53.0532","OBJECT_NAME":"STARLINK-2108","MEAN_MOTION":"15.06450515","MEAN_MOTION_DOT":"0.00024767","EPOCH":"2023-04-24T15:40:34.136832","PERIOD":"95.589","RCS_SIZE":"LARGE","PERIAPSIS":"546.026","MEAN_ELEMENT_THEORY":"SGP4","ARG_OF_PERICENTER":"93.7641","SITE":"AFETR","RA_OF_ASC_NODE":"95.4122","CENTER_NAME":"EARTH","TIME_SYSTEM":"UTC"},{"MEAN_ANOMALY":"262.7351","TLE_LINE1":"1 47388U 21005AR  23114.66792227  .00033925  00000-0  22829-2 0  9997","ECCENTRICITY":"0.00018500","COUNTRY_CODE":"US","ELEMENT_SET_NO":"999","SEMIMAJOR_AXIS":"6925.221","LAUNCH_DATE":"2021-01-20","CLASSIFICATION_TYPE":"U","FILE":"3893434","DECAY_DATE":null,"BSTAR":"0.00228290000000","OBJECT_TYPE":"PAYLOAD","EPHEMERIS_TYPE":"0","NORAD_CAT_ID":"47388","GP_ID":"230704768","MEAN_MOTION_DDOT":"0.0000000000000","APOAPSIS":"548.367","REF_FRAME":"TEME","TLE_LINE2":"2 47388  53.0531  95.3428 0001850  97.3848 262.7351 15.06441653125732","OBJECT_ID":"2021-005AR","REV_AT_EPOCH":"12573","MEAN_MOTION":"15.06441653","OBJECT_NAME":"STARLINK-2109","INCLINATION":"53.0531","MEAN_MOTION_DOT":"0.00033925","EPOCH":"2023-04-24T16:01:48.484128","PERIOD":"95.589","RCS_SIZE":"LARGE","ARG_OF_PERICENTER":"97.3848","PERIAPSIS":"545.805","MEAN_ELEMENT_THEORY":"SGP4","SITE":"AFETR","RA_OF_ASC_NODE":"95.3428","CENTER_NAME":"EARTH","TIME_SYSTEM":"UTC"},{"REF_FRAME":"TEME","APOAPSIS":"547.629","TLE_LINE2":"2 47389  53.0541  76.9222 0000943  92.3750 267.7347 15.06477487125004","REV_AT_EPOCH":"12500","OBJECT_ID":"2021-005AS","MEAN_MOTION_DDOT":"0.0000000000000","OBJECT_TYPE":"PAYLOAD","NORAD_CAT_ID":"47389","BSTAR":"0.00652830000000","EPHEMERIS_TYPE":"0","GP_ID":"230704797","FILE":"3893450","DECAY_DATE":null,"LAUNCH_DATE":"2021-01-20","CLASSIFICATION_TYPE":"U","ELEMENT_SET_NO":"999","SEMIMAJOR_AXIS":"6925.111","TLE_LINE1":"1 47389U 21005AS  23114.31497573  .00098531  00000-0  65283-2 0  9991","ECCENTRICITY":"0.00009430","COUNTRY_CODE":"US","MEAN_ANOMALY":"267.7347","CENTER_NAME":"EARTH","TIME_SYSTEM":"UTC","SITE":"AFETR","RA_OF_ASC_NODE":"76.9222","PERIAPSIS":"546.323","ARG_OF_PERICENTER":"92.3750","MEAN_ELEMENT_THEORY":"SGP4","RCS_SIZE":"LARGE","PERIOD":"95.587","MEAN_MOTION_DOT":"0.00098531","EPOCH":"2023-04-24T07:33:33.903072","MEAN_MOTION":"15.06477487","OBJECT_NAME":"STARLINK-2110","INCLINATION":"53.0541"},{"RA_OF_ASC_NODE":"96.6521","SITE":"AFETR","TIME_SYSTEM":"UTC","CENTER_NAME":"EARTH","PERIAPSIS":"546.247","ARG_OF_PERICENTER":"102.2955","MEAN_ELEMENT_THEORY":"SGP4","PERIOD":"95.591","RCS_SIZE":"LARGE","OBJECT_NAME":"STARLINK-2111","INCLINATION":"53.0541","MEAN_MOTION":"15.06424469","EPOCH":"2023-04-24T09:02:29.594688","MEAN_MOTION_DOT":"0.00009910","MEAN_MOTION_DDOT":"0.0000000000000","OBJECT_ID":"2021-005AT","REV_AT_EPOCH":"12473","TLE_LINE2":"2 47390  53.0541  96.6521 0001288 102.2955 257.8178 15.06424469124731","APOAPSIS":"548.031","REF_FRAME":"TEME","FILE":"3893330","DECAY_DATE":null,"GP_ID":"230695255","OBJECT_TYPE":"PAYLOAD","BSTAR":"0.00068283000000","EPHEMERIS_TYPE":"0","NORAD_CAT_ID":"47390","SEMIMAJOR_AXIS":"6925.274","ELEMENT_SET_NO":"999","LAUNCH_DATE":"2021-01-20","CLASSIFICATION_TYPE":"U","MEAN_ANOMALY":"257.8178","COUNTRY_CODE":"US","ECCENTRICITY":"0.00012880","TLE_LINE1":"1 47390U 21005AT  23114.37673142  .00009910  00000-0  68283-3 0  9994"}];
